GSAT0101 (PRN E11)      
1 37846U 11060A   17357.09404915 -.00000045  00000-0  00000+0 0  9990
2 37846  55.9714  66.4302 0003128 310.5537  49.4720  1.70473491 38430
GSAT0102 (PRN E12)      
1 37847U 11060B   17355.26018201 -.00000051  00000-0  00000+0 0  9994
2 37847  55.9709  66.4806 0004608 293.7822  65.7316  1.70475893 38392
GSAT0103 (PRN E19)      
1 38857U 12055A   17355.96292367  .00000085  00000-0  00000+0 0  9991
2 38857  54.9051 186.8369 0001541 215.2389 144.7883  1.70473852 32332
GSAT0104 (PRN E20)      
1 38858U 12055B   17356.48374961  .00000087  00000-0  00000-0 0  9994
2 38858  54.9057 186.8216 0000735 172.5527 187.4841  1.70473891 32334
GSAT0201 (PRN E18)      
1 40128U 14050A   17356.71337643 -.00000083  00000-0  00000+0 0  9992
2 40128  50.4016  37.6565 1636550  69.9259 306.9955  1.85520154 22777
GSAT0202 (PRN E14)      
1 40129U 14050B   17356.44137902 -.00000083  00000-0  00000-0 0  9990
2 40129  50.4528  36.6710 1637034  70.8779 306.1796  1.85520758 22992
GSAT0203 (PRN E26)      
1 40544U 15017A   17357.46027404 -.00000045  00000-0  00000+0 0  9990
2 40544  55.7612  66.6829 0004259 240.2137 119.7962  1.70475785 17042
GSAT0204 (PRN E22)      
1 40545U 15017B   17357.24316056 -.00000045  00000-0  00000+0 0  9991
2 40545  55.7673  66.7010 0002602 208.0403 151.9981  1.70475758 17051
GSAT0205 (PRN E24)      
1 40889U 15045A   17356.31120167 -.00000041  00000-0  00000-0 0  9993
2 40889  56.8769 307.0017 0003641 340.3758  19.6085  1.70474443 14181
GSAT0206 (PRN E30)      
1 40890U 15045B   17353.01151310 -.00000057  00000-0  00000+0 0  9999
2 40890  56.8787 307.0885 0002482 316.0539  43.9086  1.70474484 14158
GSAT0209 (PRN E09)      
1 41174U 15079A   17356.70302490  .00000087  00000-0  00000+0 0  9990
2 41174  54.9183 186.5060 0002962 314.3784  45.6318  1.70473602 12532
GSAT0208 (PRN E08)      
1 41175U 15079B   17355.74978635  .00000085  00000-0  00000-0 0  9993
2 41175  54.9166 186.5329 0002102 321.5006  38.5219  1.70473589 12529
GSAT0211 (PRN E02)      
1 41549U 16030A   17356.45690802 -.00000040  00000-0  00000+0 0  9993
2 41549  57.0168 306.7588 0004191 293.6107  66.3444  1.70474282  9834
GSAT0210 (PRN E01)      
1 41550U 16030B   17356.75013384 -.00000039  00000-0  00000+0 0  9990
2 41550  57.0153 306.7529 0003773 268.9477  91.0095  1.70474208  9829
GSAT0207 (PRN E07)      
1 41859U 16069A   17356.41001004  .00000086  00000-0  00000-0 0  9995
2 41859  54.5771 187.1055 0002413 294.9550  65.0564  1.70473532  6733
GSAT0212 (PRN E03)      
1 41860U 16069B   17356.26338739  .00000085  00000-0  00000+0 0  9996
2 41860  54.5750 187.1101 0002017 336.9364  23.0915  1.70473540  6827
GSAT0213 (PRN E04)      
1 41861U 16069C   17356.62982888  .00000086  00000-0  00000-0 0  9999
2 41861  54.5773 187.1021 0001464 240.9859 119.0353  1.70473638  6833
GSAT0214 (PRN E05)      
1 41862U 16069D   17352.67051362  .00000081  00000-0  00000-0 0  9990
2 41862  54.5752 187.2093 0000705 242.7953 117.2535  1.70473551  6750
